[{"OBJECT_NAME":"PRAETORIAN SDA_605","OBJECT_ID":"2025-203D","EPOCH":"2026-03-09T14:13:24.756960","MEAN_MOTION":13.83528896,"ECCENTRICITY":0.000955,"INCLINATION":81.2983,"RA_OF_ASC_NODE":102.8978,"ARG_OF_PERICENTER":98.6469,"MEAN_ANOMALY":261.5769,"EPHEMERIS_TYPE":0,"CLASSIFICATION_TYPE":"U","NORAD_CAT_ID":65568,"ELEMENT_SET_NO":999,"REV_AT_EPOCH":2492,"BSTAR":5.2426e-5,"MEAN_MOTION_DOT":7.0e-7,"MEAN_MOTION_DDOT":0},{"OBJECT_NAME":"SDA_1682","OBJECT_ID":"2025-230U","EPOCH":"2026-03-09T17:20:30.180192","MEAN_MOTION":13.84602017,"ECCENTRICITY":0.00025922,"INCLINATION":81.3027,"RA_OF_ASC_NODE":304.0041,"ARG_OF_PERICENTER":76.4793,"MEAN_ANOMALY":283.6653,"EPHEMERIS_TYPE":0,"CLASSIFICATION_TYPE":"U","NORAD_CAT_ID":65992,"ELEMENT_SET_NO":999,"REV_AT_EPOCH":2004,"BSTAR":-0.02644498,"MEAN_MOTION_DOT":-0.0002955,"MEAN_MOTION_DDOT":0}]
